1  7646U 75010A   19247.93424147 -.00000135 +00000-0 +64817-5 0  9994
2  7646 049.8235 162.3401 0205748 159.6921 201.2304 13.82306371251871
